{
  "links" : {
    "next" : "https://api.nasa.gov/neo/rest/v1/feed?start_date=2014-05-16&end_date=2014-05-16&detailed=true&api_key=t0TVs3DtDT2H8Oy2Zy8m2eVrNsAVKAexjcZXUckd",
    "prev" : "https://api.nasa.gov/neo/rest/v1/feed?start_date=2014-05-14&end_date=2014-05-14&detailed=true&api_key=t0TVs3DtDT2H8Oy2Zy8m2eVrNsAVKAexjcZXUckd",
    "self" : "https://api.nasa.gov/neo/rest/v1/feed?start_date=2014-05-15&end_date=2014-05-15&detailed=true&api_key=t0TVs3DtDT2H8Oy2Zy8m2eVrNsAVKAexjcZXUckd"
  },
  "element_count" : 8,
  "near_earth_objects" : {
    "2014-05-15" : [ {
      "links" : {
        "self" : "https://api.nasa.gov/neo/rest/v1/neo/3766326?api_key=t0TVs3DtDT2H8Oy2Zy8m2eVrNsAVKAexjcZXUckd"
      },
      "neo_reference_id" : "3766326",
      "name" : "(2017 AZ3)",
      "nasa_jpl_url" : "http://ssd.jpl.nasa.gov/sbdb.cgi?sstr=3766326",
      "absolute_magnitude_h" : 30.0,
      "estimated_diameter" : {
        "kilometers" : {
          "estimated_diameter_min" : 0.002658,
          "estimated_diameter_max" : 0.0059434687
        },
        "meters" : {
          "estimated_diameter_min" : 2.658,
          "estimated_diameter_max" : 5.9434686842
        },
        "miles" : {
          "estimated_diameter_min" : 0.0016516041,
          "estimated_diameter_max" : 0.0036930991
        },
        "feet" : {
          "estimated_diameter_min" : 8.72047272,
          "estimated_diameter_max" : 19.4995697979
        }
      },
      "is_potentially_hazardous_asteroid" : false,
      "close_approach_data" : [ {
        "close_approach_date" : "2014-05-15",
        "epoch_date_close_approach" : 1400137200000,
        "relative_velocity" : {
          "kilometers_per_second" : "4.5089187457",
          "kilometers_per_hour" : "16232.1074844551",
          "miles_per_hour" : "10086.000342216"
        },
        "miss_distance" : {
          "astronomical" : "0.3475422252",
          "lunar" : "135.1939239502",
          "kilometers" : "51991576",
          "miles" : "32306068"
        },
        "orbiting_body" : "Earth"
      } ],
      "orbital_data" : {
        "orbit_id" : "3",
        "orbit_determination_date" : "2017-04-06 08:21:11",
        "orbit_uncertainty" : "6",
        "minimum_orbit_intersection" : ".00309054",
        "jupiter_tisserand_invariant" : "4.971",
        "epoch_osculation" : "2458000.5",
        "eccentricity" : ".2705384368793147",
        "semi_major_axis" : "1.296924896026384",
        "inclination" : "4.034184273423596",
        "ascending_node_longitude" : "285.3959327666454",
        "orbital_period" : "539.4741849785022",
        "perihelion_distance" : ".9460568619055384",
        "perihelion_argument" : "217.0483515407444",
        "aphelion_distance" : "1.64779293014723",
        "perihelion_time" : "2457790.882296506868",
        "mean_anomaly" : "139.8813425345546",
        "mean_motion" : ".6673164537323427",
        "equinox" : "J2000"
      }
    }, {
      "links" : {
        "self" : "https://api.nasa.gov/neo/rest/v1/neo/3775203?api_key=t0TVs3DtDT2H8Oy2Zy8m2eVrNsAVKAexjcZXUckd"
      },
      "neo_reference_id" : "3775203",
      "name" : "(2017 LW)",
      "nasa_jpl_url" : "http://ssd.jpl.nasa.gov/sbdb.cgi?sstr=3775203",
      "absolute_magnitude_h" : 25.478,
      "estimated_diameter" : {
        "kilometers" : {
          "estimated_diameter_min" : 0.0213282379,
          "estimated_diameter_max" : 0.0476913898
        },
        "meters" : {
          "estimated_diameter_min" : 21.3282379143,
          "estimated_diameter_max" : 47.6913898166
        },
        "miles" : {
          "estimated_diameter_min" : 0.0132527485,
          "estimated_diameter_max" : 0.0296340466
        },
        "feet" : {
          "estimated_diameter_min" : 69.9745360787,
          "estimated_diameter_max" : 156.467819366
        }
      },
      "is_potentially_hazardous_asteroid" : false,
      "close_approach_data" : [ {
        "close_approach_date" : "2014-05-15",
        "epoch_date_close_approach" : 1400137200000,
        "relative_velocity" : {
          "kilometers_per_second" : "14.6831576617",
          "kilometers_per_hour" : "52859.367582134",
          "miles_per_hour" : "32844.7553734655"
        },
        "miss_distance" : {
          "astronomical" : "0.4178169227",
          "lunar" : "162.5307922363",
          "kilometers" : "62504524",
          "miles" : "38838512"
        },
        "orbiting_body" : "Earth"
      } ],
      "orbital_data" : {
        "orbit_id" : "15",
        "orbit_determination_date" : "2017-08-17 06:19:01",
        "orbit_uncertainty" : "6",
        "minimum_orbit_intersection" : ".0406966",
        "jupiter_tisserand_invariant" : "4.899",
        "epoch_osculation" : "2458000.5",
        "eccentricity" : ".2091915653662052",
        "semi_major_axis" : "1.329682429502777",
        "inclination" : "4.238980470200043",
        "ascending_node_longitude" : "257.4870468129465",
        "orbital_period" : "560.0416440892253",
        "perihelion_distance" : "1.051524080635152",
        "perihelion_argument" : "19.95212619485473",
        "aphelion_distance" : "1.607840778370401",
        "perihelion_time" : "2457933.331529933596",
        "mean_anomaly" : "43.17651995902816",
        "mean_motion" : ".642809340697252",
        "equinox" : "J2000"
      }
    } ]
  }
}